{
  "norad_id": 68906,
  "name": "STARLINK-37541",
  "history": [
    {
      "epoch": "2026-05-04T18:00:02.000160Z",
      "apogee_km": 278.5456014337942,
      "perigee_km": 276.5874934501371,
      "latitude_deg": -56.53404212845375,
      "longitude_deg": -4.055076472227307,
      "height_km": 300.3458334505212,
      "semi_major_axis_km": 6655.703547441965,
      "eccentricity": 0.0001471,
      "inclination_deg": 97.2868,
      "raan_deg": 319.6778,
      "arg_perigee_deg": 93.016,
      "mean_anomaly_deg": 143.9718,
      "mean_motion_rev_day": 15.98865043
    }
  ]
}