{"generatedAt":"2026-05-05T08:19:47.084492Z","satellites":[{"name":"STARLINK-37541","tle1":"1 68906U 26097M   26124.75002315 -.02191461  14007-2 -46618-2 0  9998","tle2":"2 68906  97.2868 319.6778 0001471  93.0160 143.9718 15.98865043  1940"}]}